STARLINK-33656          
1 63389U 25063AC  25322.94689002  .00036574  00000+0  12410-2 0  9991
2 63389  53.1615 206.8906 0001344  76.2916 283.8234 15.30196475 37805
STARLINK-33531          
1 63399U 25065A   25323.53162416  .00026175  00000+0  95618-3 0  9993
2 63399  43.0013   9.1199 0000425 251.3991 108.6815 15.27619501 35995
STARLINK-33652          
1 63400U 25065B   25323.44053746  .00027510  00000+0  10046-2 0  9996
2 63400  43.0012   9.2886 0001008 264.4713  95.6023 15.27608260 35981
STARLINK-33707          
1 63401U 25065C   25322.87392114  .00036166  00000+0  13167-2 0  9992
2 63401  43.0045  12.7880 0000448  37.5833 322.5050 15.27596280 35890
STARLINK-33668          
1 63402U 25065D   25323.41498945  .00057078  00000+0  20644-2 0  9996
2 63402  43.0019   9.9622 0001797 274.6463  85.4183 15.27632329 35971
STARLINK-33676          
1 63403U 25065E   25322.87262800  .00021459  00000+0  78722-3 0  9990
2 63403  43.0019  12.7725 0000817 275.8050  84.2708 15.27572918 35893
STARLINK-33711          
1 63404U 25065F   25323.43925188  .00048284  00000+0  17498-2 0  9996
2 63404  43.0019   9.2821 0000725 270.9043  89.1726 15.27633461 35983
STARLINK-33708          
1 63405U 25065G   25323.53033691  .00027219  00000+0  99378-3 0  9990
2 63405  43.0032   9.1047 0001822 269.2829  90.7814 15.27619996 35994
STARLINK-33690          
1 63406U 25065H   25323.43459762  .00030384  00000+0  11080-2 0  9991
2 63406  43.0031   5.7833 0000256 257.9301 102.1522 15.27613996 36021
STARLINK-33694          
1 63407U 25065J   25322.86876688  .00035430  00000+0  12893-2 0  9998
2 63407  43.0026  12.7320 0000442   3.2548 356.8307 15.27620234 35893
STARLINK-33692          
1 63408U 25065K   25323.56582967  .00026043  00000+0  95155-3 0  9994
2 63408  42.9984  12.8256 0000965 276.5643  83.5099 15.27615198 35957
STARLINK-33693          
1 63409U 25065L   25323.40984522  .00035242  00000+0  12823-2 0  9992
2 63409  43.0026   9.9154 0004984 283.6104  76.4192 15.27615780 35971
STARLINK-33677          
1 63410U 25065M   25322.55211561  .00038556  00000+0  14032-2 0  9990
2 63410  43.0033  14.6556 0001472 262.5983  97.4702 15.27583115 35842
STARLINK-33647          
1 63411U 25065N   25323.51538444  .00026828  00000+0  97995-3 0  9999
2 63411  43.0024  16.7769 0001132 265.6130  94.4592 15.27611156 35901
STARLINK-33645          
1 63412U 25065P   25323.19777904  .00025662  00000+0  93835-3 0  9994
2 63412  43.0013  14.2915 0000672 279.0419  81.0356 15.27596511 35900
STARLINK-33670          
1 63413U 25065Q   25323.39827362  .00045238  00000+0  16408-2 0  9992
2 63413  43.0001   9.7969 0000329 310.8090  49.2733 15.27631524 35970
STARLINK-33644          
1 63414U 25065R   25323.50991843  .00025856  00000+0  94506-3 0  9992
2 63414  43.0020   9.7568 0000627 272.8699  87.2081 15.27606123 35986
STARLINK-33664          
1 63415U 25065S   25323.40597896  .00028900  00000+0  10550-2 0  9991
2 63415  43.0020   9.8479 0003092 282.6838  77.3667 15.27598547 35971
STARLINK-33649          
1 63416U 25065T   25322.87004097  .00023532  00000+0  86196-3 0  9994
2 63416  43.0070  12.6855 0002495 263.9596  96.0971 15.27578192 35897
STARLINK-33535          
1 63417U 25065U   25323.47007876  .00039226  00000+0  14245-2 0  9992
2 63417  43.0016   9.4420 0001516 241.1715 118.8985 15.27646191 35987
STARLINK-33703          
1 63418U 25065V   25323.42525446  .00046948  00000+0  17022-2 0  9991
2 63418  42.9974   9.9803 0001130 258.0958 101.9767 15.27628403 35973
STARLINK-33709          
1 63419U 25065W   25323.55988161  .00034522  00000+0  12564-2 0  9994
2 63419  43.0026   9.2748 0001246 278.0578  82.0132 15.27624985 35991
STARLINK-33698          
1 63420U 25065X   25322.86233903  .00030896  00000+0  11270-2 0  9999
2 63420  43.0037  12.6192 0000628 334.2933  25.7888 15.27597671 35891
STARLINK-33606          
1 63421U 25065Y   25322.55340387  .00041858  00000+0  15217-2 0  9996
2 63421  43.0008  14.6110 0001742  57.0763 303.0256 15.27586811 35841
STARLINK-33686          
1 63422U 25065Z   25323.41369092  .00031613  00000+0  11517-2 0  9994
2 63422  42.9997   9.8868 0000095 290.1396  69.9445 15.27630037 35977
STARLINK-33675          
1 63423U 25065AA  25322.85848411  .00031746  00000+0  11586-2 0  9992
2 63423  43.0045  12.5975 0000912 256.9861 103.0889 15.27569897 35897
STARLINK-33655          
1 63424U 25065AB  25323.43682018  .00026057  00000+0  95228-3 0  9992
2 63424  43.0013  10.0553 0000715 271.0029  89.0740 15.27607004 35974
STARLINK-33608          
1 63425U 25065AC  25323.01880223  .00042112  00000+0  15304-2 0  9991
2 63425  43.0022  12.0711 0002350 269.4854  90.5728 15.27594633 35917
STARLINK-33615          
1 63426U 25065AD  25323.43296993  .00045401  00000+0  16480-2 0  9993
2 63426  43.0101  10.0374 0001676 275.5230  84.5430 15.27605279 35973
STARLINK-33682          
1 63433U 25069A   25323.63137425  .00031521  00000+0  10716-2 0  9995
2 63433  53.1599 293.7387 0001561  94.0227 266.0952 15.30207033 36552
STARLINK-33710          
1 63434U 25069B   25323.25639019  .00031916  00000+0  10860-2 0  9998
2 63434  53.1607 295.6652 0001403  67.1857 292.9292 15.30171927 36494
STARLINK-33733          
1 63435U 25069C   25323.25320415  .00025103  00000+0  85685-3 0  9995
2 63435  53.1606 295.6421 0001420  85.0059 275.1104 15.30198385 36492
STARLINK-33638          
1 63436U 25069D   25323.25004151  .00030623  00000+0  10416-2 0  9994
2 63436  53.1605 295.6238 0001261  84.5184 275.5961 15.30204780 36496
STARLINK-33726          
1 63437U 25069E   25323.24476082  .00036818  00000+0  12490-2 0  9996
2 63437  53.1600 295.5925 0001393  88.8174 271.2986 15.30202237 36446
STARLINK-33681          
1 63438U 25069F   25323.62926210  .00023763  00000+0  81173-3 0  9992
2 63438  53.1600 293.7234 0001377  88.8192 271.2967 15.30206265 36558
STARLINK-33730          
1 63439U 25069G   25323.21098869  .00032092  00000+0  10909-2 0  9991
2 63439  53.1594 295.3798 0001361  84.1643 275.9513 15.30202452 36492
STARLINK-33743          
1 63440U 25069H   25323.24687199  .00036673  00000+0  12444-2 0  9991
2 63440  53.1609 295.6032 0001379  95.0697 265.0461 15.30195883 36383
STARLINK-33715          
1 63441U 25069J   25323.63559476  .00025057  00000+0  85505-3 0  9994
2 63441  53.1598 293.7561 0001438  88.7877 271.3288 15.30208415 36554
STARLINK-33762          
1 63442U 25069K   25323.24159404  .00035050  00000+0  11899-2 0  9997
2 63442  53.1609 295.5723 0001305 107.2327 252.8816 15.30200142 36491
STARLINK-33753          
1 63443U 25069L   25323.62292749  .00025706  00000+0  87658-3 0  9994
2 63443  53.1594 293.6833 0001252  90.6756 269.4388 15.30217400 36547
STARLINK-33747          
1 63444U 25069M   25323.61659671  .00021631  00000+0  74010-3 0  9996
2 63444  53.1587 293.6420 0001170  96.9777 263.1357 15.30210221 36500
STARLINK-33659          
1 63445U 25069N   25323.19738583  .00026474  00000+0  90297-3 0  9995
2 63445  53.1605 296.0032 0001371  91.4577 268.6581 15.30193882 36433
STARLINK-33746          
1 63446U 25069P   25323.62820501  .00009548  00000+0  33399-3 0  9999
2 63446  53.1591 293.7121 0001390  94.0951 266.0209 15.30207493 36508
STARLINK-33799          
1 63447U 25069Q   25323.19527501  .00026392  00000+0  90054-3 0  9993
2 63447  53.1609 295.9901 0001060  90.3188 269.7934 15.30182145 36370
STARLINK-33797          
1 63448U 25069R   25323.21837753  .00045019  00000+0  15230-2 0  9999
2 63448  53.1592 295.4223 0001218  96.3894 263.7245 15.30197126 36441
STARLINK-33798          
1 63449U 25069S   25323.19843788  .00025034  00000+0  85438-3 0  9995
2 63449  53.1625 295.9948 0001234  81.4391 278.6750 15.30204202 36218
STARLINK-33736          
1 63450U 25069T   25323.21202866  .00015689  00000+0  54133-3 0  9999
2 63450  53.1595 295.3812 0001466 114.8735 245.2419 15.30162708 36441
STARLINK-33740          
1 63451U 25069U   25323.62504467  .00029743  00000+0  10117-2 0  9996
2 63451  53.1588 293.6900 0001451  93.2988 266.8179 15.30221674 36447
STARLINK-33763          
1 63452U 25069V   25323.21732075  .00033171  00000+0  11271-2 0  9992
2 63452  53.1598 295.3992 0001234  97.7206 262.3935 15.30198418 36495
STARLINK-33784          
1 63453U 25069W   25323.19421917  .00042065  00000+0  14231-2 0  9991
2 63453  53.1629 295.9785 0001366  72.3879 287.7271 15.30228815 36486
STARLINK-33768          
1 63454U 25069X   25323.62186778  .00035283  00000+0  11983-2 0  9998
2 63454  53.1599 293.6565 0000807  97.1294 262.9799 15.30185574 36551
STARLINK-33761          
1 63455U 25069Y   25323.22048431  .00018820  00000+0  64596-3 0  9995
2 63455  53.1596 295.4220 0001275  97.0494 263.0652 15.30198522 36498
STARLINK-33737          
1 63456U 25069Z   25323.61870674  .00032381  00000+0  10990-2 0  9997
2 63456  53.1597 293.6312 0001092 112.2214 247.8903 15.30247827 36446
STARLINK-33795          
1 63457U 25069AA  25323.18894278  .00025981  00000+0  88570-3 0  9994
2 63457  53.1624 295.9381 0001707  90.9805 269.1391 15.30220449 36371
STARLINK-33756          
1 63458U 25069AB  25323.19212498  .00036697  00000+0  12457-2 0  9990
2 63458  53.1620 295.9489 0001475  71.1762 288.9399 15.30183771 36487
STARLINK-33780          
1 63459U 25069AC  25323.61554665  .00025521  00000+0  87038-3 0  9995
2 63459  53.1593 293.6140 0001994  88.4268 271.6961 15.30216991 36445
STARLINK-33679          
1 63460U 25070A   25323.58188213  .00019736  00000+0  72450-3 0  9990
2 63460  42.9968 161.9441 0001191 266.4711  93.6004 15.27592735 36135
STARLINK-33706          
1 63461U 25070B   25323.58573660  .00032738  00000+0  11932-2 0  9999
2 63461  42.9952 161.9425 0000457 283.1845  76.8955 15.27598322 36135
STARLINK-33691          
1 63462U 25070C   25323.59971882  .00025448  00000+0  93048-3 0  9998
2 63462  42.9967 161.1851 0000633 274.4889  85.5891 15.27601945 36091
